{
  "organisations": [
    {
      "id": "9eb099a7-bda0-456c-96ba-e0af3fdb9cde",
      "name": "Looney Tunes",
      "tradingName": "Acme Compliance Scheme",
      "address": {
        "addressLine1": "37th Place",
        "town": "Ashfield",
        "county": "Chicago",
        "postcode": "W1 L3Y"
      }
    },
    {
      "id": "dd793573-b218-47a7-be85-1c777ca0d0d8",
      "name": "Bigco Packaging Ltd",
      "address": {
        "addressLine1": "Zig Zag road",
        "addressLine2": "Box Hill",
        "town": "Tadworth",
        "postcode": "KT20 7LB"
      }
    },
    {
      "id": "b7b158e1-c72f-45d4-8868-5c6e14bc10af",
      "name": "Green Waste Solutions",
      "address": {
        "addressLine1": "1 Worlds End Lane",
        "town": "Green St Green",
        "postcode": "BR6 6AG",
        "country": "England"
      }
    },
    {
      "id": "producer-1",
      "name": "Acme Packaging Ltd",
      "address": {
        "addressLine1": "123 Industrial Estate",
        "town": "Manchester",
        "postcode": "M1 1AA"
      }
    },
    {
      "id": "producer-2",
      "name": "BigCo Waste Solutions",
      "address": {
        "addressLine1": "456 Recycling Road",
        "town": "Birmingham",
        "postcode": "B1 1BB"
      }
    },
    {
      "id": "producer-3",
      "name": "EcoRecycle Industries",
      "address": {
        "addressLine1": "789 Green Lane",
        "town": "Leeds",
        "postcode": "LS1 1CC"
      }
    },
    {
      "id": "scheme-1",
      "name": "Green Compliance Scheme",
      "address": {
        "addressLine1": "10 Compliance Way",
        "town": "London",
        "postcode": "EC1 1DD"
      }
    },
    {
      "id": "scheme-2",
      "name": "National Packaging Scheme",
      "address": {
        "addressLine1": "20 Packaging Plaza",
        "town": "Bristol",
        "postcode": "BS1 1EE"
      }
    }
  ]
}
